{
    "links": {
        "self": "http://www.neowsapp.com/rest/v1/neo/3076772?api_key=iIulBulltgU6a56xZRHN4H3l9WmuAYTsLGpBGhQ2"
    },
    "id": "3076772",
    "neo_reference_id": "3076772",
    "name": "(2001 GL2)",
    "designation": "2001 GL2",
    "nasa_jpl_url": "http://ssd.jpl.nasa.gov/sbdb.cgi?sstr=3076772",
    "absolute_magnitude_h": 20.6,
    "estimated_diameter": {
        "kilometers": {
            "estimated_diameter_min": 0.2016299194,
            "estimated_diameter_max": 0.4508582062
        },
        "meters": {
            "estimated_diameter_min": 201.6299194428,
            "estimated_diameter_max": 450.8582061718
        },
        "miles": {
            "estimated_diameter_min": 0.1252869847,
            "estimated_diameter_max": 0.2801502144
        },
        "feet": {
            "estimated_diameter_min": 661.5155049046,
            "estimated_diameter_max": 1479.1936371367
        }
    },
    "is_potentially_hazardous_asteroid": false,
    "close_approach_data": [
        {
            "close_approach_date": "2001-04-09",
            "close_approach_date_full": "2001-Apr-09 17:43",
            "epoch_date_close_approach": 986838180000,
            "relative_velocity": {
                "kilometers_per_second": "21.6250663647",
                "kilometers_per_hour": "77850.2389129261",
                "miles_per_hour": "48373.1109512012"
            },
            "miss_distance": {
                "astronomical": "0.119471774",
                "lunar": "46.474520086",
                "kilometers": "17872722.91552138",
                "miles": "11105595.046419844"
            },
            "orbiting_body": "Earth"
        }
    ],
    "orbital_data": {
        "orbit_id": "11",
        "orbit_determination_date": "2017-04-06 09:16:26",
        "first_observation_date": "2001-04-03",
        "last_observation_date": "2001-04-16",
        "data_arc_in_days": 13,
        "observations_used": 21,
        "orbit_uncertainty": "9",
        "minimum_orbit_intersection": ".0530689",
        "jupiter_tisserand_invariant": "2.853",
        "epoch_osculation": "2452009.5",
        "eccentricity": ".6423976595906526",
        "semi_major_axis": "2.660126750941211",
        "inclination": "35.09865047228798",
        "ascending_node_longitude": "192.544819956069",
        "orbital_period": "1584.717751392295",
        "perihelion_distance": ".9512675519220901",
        "perihelion_argument": "42.41404451988411",
        "aphelion_distance": "4.368985949960332",
        "perihelion_time": "2452041.270764200846",
        "mean_anomaly": "352.7826421441573",
        "mean_motion": ".227169790761612",
        "equinox": "J2000",
        "orbit_class": {
            "orbit_class_type": "APO",
            "orbit_class_description": "Near-Earth asteroid orbits which cross the Earth’s orbit similar to that of 1862 Apollo",
            "orbit_class_range": "a (semi-major axis) > 1.0 AU; q (perihelion) < 1.017 AU"
        }
    },
    "is_sentry_object": false
}